{
  "type": "FeatureCollection",
  "features": [
    {
      "type": "Feature",
      "properties": {
        "norad_id": 34540,
        "name": "IRIDIUM 33 DEB",
        "group": "iridium-33-debris",
        "lat": 82.93892813964818,
        "lon": -18.733613337558907,
        "alt_km": 637.8415449801396,
        "timestamp": "2025-12-07T18:50:17.100155+00:00",
        "meta_object_name": "IRIDIUM 33 DEB",
        "meta_object_id": "1997-051JH",
        "meta_epoch": "2025-12-06T21:23:37.747968",
        "meta_mean_motion": 14.75129785,
        "meta_eccentricity": 0.00154132,
        "meta_inclination": 86.3105,
        "meta_ra_of_asc_node": 310.2798,
        "meta_arg_of_pericenter": 180.3432,
        "meta_mean_anomaly": 201.9218,
        "meta_ephemeris_type": 0,
        "meta_classification_type": "U",
        "meta_norad_cat_id": 34540,
        "meta_element_set_no": 999,
        "meta_rev_at_epoch": 88935,
        "meta_bstar": 0.0025270444,
        "meta_mean_motion_dot": 0.00017126,
        "meta_mean_motion_ddot": 0,
        "tle_line1": "1 34540U 97051JH  25340.89140912  .00017126  00000+0  25270-2 0  9990",
        "tle_line2": "2 34540  86.3105 310.2798 0015413 180.3432 201.9218 14.75129785889351"
      },
      "geometry": {
        "type": "Point",
        "coordinates": [
          -18.733613337558907,
          82.93892813964818
        ]
      }
    },
    {
      "type": "Feature",
      "properties": {
        "norad_id": 34648,
        "name": "IRIDIUM 33 DEB",
        "group": "iridium-33-debris",
        "lat": -72.1986965812212,
        "lon": -87.38426947479576,
        "alt_km": 742.547513735015,
        "timestamp": "2025-12-07T18:50:17.100165+00:00",
        "meta_object_name": "IRIDIUM 33 DEB",
        "meta_object_id": "1997-051JZ",
        "meta_epoch": "2025-12-06T19:20:47.044320",
        "meta_mean_motion": 14.11197938,
        "meta_eccentricity": 0.01849632,
        "meta_inclination": 86.3922,
        "meta_ra_of_asc_node": 284.3423,
        "meta_arg_of_pericenter": 317.3129,
        "meta_mean_anomaly": 41.3805,
        "meta_ephemeris_type": 0,
        "meta_classification_type": "U",
        "meta_norad_cat_id": 34648,
        "meta_element_set_no": 999,
        "meta_rev_at_epoch": 84877,
        "meta_bstar": 0.013223828,
        "meta_mean_motion_dot": 0.00028092,
        "meta_mean_motion_ddot": 0,
        "tle_line1": "1 34648U 97051JZ  25340.80610005  .00028092  00000+0  13224-1 0  9994",
        "tle_line2": "2 34648  86.3922 284.3423 0184963 317.3129  41.3805 14.11197938848779"
      },
      "geometry": {
        "type": "Point",
        "coordinates": [
          -87.38426947479576,
          -72.1986965812212
        ]
      }
    },
    {
      "type": "Feature",
      "properties": {
        "norad_id": 34651,
        "name": "IRIDIUM 33 DEB",
        "group": "iridium-33-debris",
        "lat": 86.09165899440016,
        "lon": -145.26946161939142,
        "alt_km": 864.5630597011086,
        "timestamp": "2025-12-07T18:50:17.100175+00:00",
        "meta_object_name": "IRIDIUM 33 DEB",
        "meta_object_id": "1997-051KC",
        "meta_epoch": "2025-12-06T22:11:54.879936",
        "meta_mean_motion": 14.25664536,
        "meta_eccentricity": 0.01419317,
        "meta_inclination": 86.2838,
        "meta_ra_of_asc_node": 143.05,
        "meta_arg_of_pericenter": 222.4049,
        "meta_mean_anomaly": 136.6106,
        "meta_ephemeris_type": 0,
        "meta_classification_type": "U",
        "meta_norad_cat_id": 34651,
        "meta_element_set_no": 999,
        "meta_rev_at_epoch": 85813,
        "meta_bstar": 0.004978077,
        "meta_mean_motion_dot": 0.00013145,
        "meta_mean_motion_ddot": 0,
        "tle_line1": "1 34651U 97051KC  25340.92494074  .00013145  00000+0  49781-2 0  9998",
        "tle_line2": "2 34651  86.2838 143.0500 0141931 222.4049 136.6106 14.25664536858131"
      },
      "geometry": {
        "type": "Point",
        "coordinates": [
          -145.26946161939142,
          86.09165899440016
        ]
      }
    },
    {
      "type": "Feature",
      "properties": {
        "norad_id": 34652,
        "name": "IRIDIUM 33 DEB",
        "group": "iridium-33-debris",
        "lat": -34.86543459122667,
        "lon": 164.77007146330067,
        "alt_km": 696.7888132331755,
        "timestamp": "2025-12-07T18:50:17.100185+00:00",
        "meta_object_name": "IRIDIUM 33 DEB",
        "meta_object_id": "1997-051KD",
        "meta_epoch": "2025-12-06T23:55:08.624640",
        "meta_mean_motion": 14.61974731,
        "meta_eccentricity": 0.00265351,
        "meta_inclination": 86.331,
        "meta_ra_of_asc_node": 342.5586,
        "meta_arg_of_pericenter": 318.9776,
        "meta_mean_anomaly": 69.9638,
        "meta_ephemeris_type": 0,
        "meta_classification_type": "U",
        "meta_norad_cat_id": 34652,
        "meta_element_set_no": 999,
        "meta_rev_at_epoch": 88400,
        "meta_bstar": 0.0015568866,
        "meta_mean_motion_dot": 7.862e-05,
        "meta_mean_motion_ddot": 0,
        "tle_line1": "1 34652U 97051KD  25340.99662760  .00007862  00000+0  15569-2 0  9991",
        "tle_line2": "2 34652  86.3310 342.5586 0026535 318.9776  69.9638 14.61974731884002"
      },
      "geometry": {
        "type": "Point",
        "coordinates": [
          164.77007146330067,
          -34.86543459122667
        ]
      }
    },
    {
      "type": "Feature",
      "properties": {
        "norad_id": 34690,
        "name": "IRIDIUM 33 DEB",
        "group": "iridium-33-debris",
        "lat": -21.725151207288505,
        "lon": -139.40901673263573,
        "alt_km": 722.09152021929,
        "timestamp": "2025-12-07T18:50:17.100195+00:00",
        "meta_object_name": "IRIDIUM 33 DEB",
        "meta_object_id": "1997-051KM",
        "meta_epoch": "2025-12-06T22:39:51.154848",
        "meta_mean_motion": 14.55062942,
        "meta_eccentricity": 0.00114779,
        "meta_inclination": 86.3784,
        "meta_ra_of_asc_node": 39.5101,
        "meta_arg_of_pericenter": 46.8175,
        "meta_mean_anomaly": 74.4761,
        "meta_ephemeris_type": 0,
        "meta_classification_type": "U",
        "meta_norad_cat_id": 34690,
        "meta_element_set_no": 999,
        "meta_rev_at_epoch": 88010,
        "meta_bstar": 0.0008002396,
        "meta_mean_motion_dot": 3.473e-05,
        "meta_mean_motion_ddot": 0,
        "tle_line1": "1 34690U 97051KM  25340.94434207  .00003473  00000+0  80024-3 0  9994",
        "tle_line2": "2 34690  86.3784  39.5101 0011477  46.8175  74.4761 14.55062942880104"
      },
      "geometry": {
        "type": "Point",
        "coordinates": [
          -139.40901673263573,
          -21.725151207288505
        ]
      }
    },
    {
      "type": "Feature",
      "properties": {
        "norad_id": 34693,
        "name": "IRIDIUM 33 DEB",
        "group": "iridium-33-debris",
        "lat": 48.29409174430541,
        "lon": -49.55901730213509,
        "alt_km": 472.7264797407988,
        "timestamp": "2025-12-07T18:50:17.100205+00:00",
        "meta_object_name": "IRIDIUM 33 DEB",
        "meta_object_id": "1997-051KQ",
        "meta_epoch": "2025-12-07T04:31:14.076768",
        "meta_mean_motion": 15.26022531,
        "meta_eccentricity": 0.00151617,
        "meta_inclination": 86.3058,
        "meta_ra_of_asc_node": 306.5787,
        "meta_arg_of_pericenter": 61.8595,
        "meta_mean_anomaly": 311.3887,
        "meta_ephemeris_type": 0,
        "meta_classification_type": "U",
        "meta_norad_cat_id": 34693,
        "meta_element_set_no": 999,
        "meta_rev_at_epoch": 88830,
        "meta_bstar": 0.0063934031,
        "meta_mean_motion_dot": 0.00168404,
        "meta_mean_motion_ddot": 0,
        "tle_line1": "1 34693U 97051KQ  25341.18835737  .00168404  00000+0  63934-2 0  9993",
        "tle_line2": "2 34693  86.3058 306.5787 0015161  61.8595 311.3887 15.26022531888306"
      },
      "geometry": {
        "type": "Point",
        "coordinates": [
          -49.55901730213509,
          48.29409174430541
        ]
      }
    },
    {
      "type": "Feature",
      "properties": {
        "norad_id": 34696,
        "name": "IRIDIUM 33 DEB",
        "group": "iridium-33-debris",
        "lat": 14.79583044069598,
        "lon": -151.18196191628834,
        "alt_km": 629.5293214291842,
        "timestamp": "2025-12-07T18:50:17.100214+00:00",
        "meta_object_name": "IRIDIUM 33 DEB",
        "meta_object_id": "1997-051KT",
        "meta_epoch": "2025-12-06T02:52:04.787040",
        "meta_mean_motion": 14.64546294,
        "meta_eccentricity": 0.00743893,
        "meta_inclination": 86.1858,
        "meta_ra_of_asc_node": 30.6015,
        "meta_arg_of_pericenter": 190.2234,
        "meta_mean_anomaly": 199.6161,
        "meta_ephemeris_type": 0,
        "meta_classification_type": "U",
        "meta_norad_cat_id": 34696,
        "meta_element_set_no": 999,
        "meta_rev_at_epoch": 86576,
        "meta_bstar": 0.0088114057,
        "meta_mean_motion_dot": 0.00048964,
        "meta_mean_motion_ddot": 0,
        "tle_line1": "1 34696U 97051KT  25340.11949985  .00048964  00000+0  88114-2 0  9994",
        "tle_line2": "2 34696  86.1858  30.6015 0074389 190.2234 199.6161 14.64546294865763"
      },
      "geometry": {
        "type": "Point",
        "coordinates": [
          -151.18196191628834,
          14.79583044069598
        ]
      }
    }
  ]
}